{"type": "FeatureCollection", "features": [ {"type": "Feature", "properties": {"norad_id": 33745, "name": "FENGYUN 1C DEB", "group": "fengyun-1c-debris", "lat": -37.57710562341546, "lon": 30.735366320336592, "alt_km": 801.6007447680622, "timestamp": "2025-12-12T11:38:31.699240+00:00", "meta": {"OBJECT_NAME": "FENGYUN 1C DEB", "OBJECT_ID": "1999-025DJJ", "EPOCH": "2025-12-09T12:54:35.581248", "MEAN_MOTION": 14.22286162, "ECCENTRICITY": 0.0053634, "INCLINATION": 99.1144, "RA_OF_ASC_NODE": 20.5943, "ARG_OF_PERICENTER": 275.368, "MEAN_ANOMALY": 84.1379, "EPHEMERIS_TYPE": 0, "CLASSIFICATION_TYPE": "U", "NORAD_CAT_ID": 33745, "ELEMENT_SET_NO": 999, "REV_AT_EPOCH": 65956, "BSTAR": 0.0019638, "MEAN_MOTION_DOT": 4.382e-05, "MEAN_MOTION_DDOT": 0}, "tle": {"line1": "1 33745U 99025DJJ 25343.53791182  .00004382  00000+0  19638-2 0  9995", "line2": "2 33745  99.1144  20.5943 0053634 275.3680  84.1379 14.22286162659564"}}, "geometry": {"type": "Point", "coordinates": [30.735366320336592, -37.57710562341546]}}, {"type": "Feature", "properties": {"norad_id": 33747, "name": "FENGYUN 1C DEB", "group": "fengyun-1c-debris", "lat": -60.31983650748002, "lon": -115.1714603095673, "alt_km": 781.9065335101031, "timestamp": "2025-12-12T11:38:31.699251+00:00", "meta": {"OBJECT_NAME": "FENGYUN 1C DEB", "OBJECT_ID": "1999-025DJL", "EPOCH": "2025-12-07T00:03:01.560960", "MEAN_MOTION": 14.17338054, "ECCENTRICITY": 0.00899301, "INCLINATION": 99.098, "RA_OF_ASC_NODE": 75.547, "ARG_OF_PERICENTER": 232.9564, "MEAN_ANOMALY": 126.336, "EPHEMERIS_TYPE": 0, "CLASSIFICATION_TYPE": "U", "NORAD_CAT_ID": 33747, "ELEMENT_SET_NO": 999, "REV_AT_EPOCH": 90051, "BSTAR": 0.0039970984, "MEAN_MOTION_DOT": 8.373e-05, "MEAN_MOTION_DDOT": 0}, "tle": {"line1": "1 33747U 99025DJL 25341.00210140  .00008373  00000+0  39971-2 0  9993", "line2": "2 33747  99.0980  75.5470 0089930 232.9564 126.3360 14.17338054900511"}}, "geometry": {"type": "Point", "coordinates": [-115.1714603095673, -60.31983650748002]}}, {"type": "Feature", "properties": {"norad_id": 33748, "name": "FENGYUN 1C DEB", "group": "fengyun-1c-debris", "lat": -64.70753896054008, "lon": -161.006533103935, "alt_km": 766.6574016254872, "timestamp": "2025-12-12T11:38:31.699261+00:00", "meta": {"OBJECT_NAME": "FENGYUN 1C DEB", "OBJECT_ID": "1999-025DJM", "EPOCH": "2025-12-11T14:22:32.829312", "MEAN_MOTION": 14.32270627, "ECCENTRICITY": 0.00345122, "INCLINATION": 98.5864, "RA_OF_ASC_NODE": 36.7637, "ARG_OF_PERICENTER": 244.4311, "MEAN_ANOMALY": 115.3303, "EPHEMERIS_TYPE": 0, "CLASSIFICATION_TYPE": "U", "NORAD_CAT_ID": 33748, "ELEMENT_SET_NO": 999, "REV_AT_EPOCH": 91377, "BSTAR": 0.0019946465, "MEAN_MOTION_DOT": 5.376e-05, "MEAN_MOTION_DDOT": 0}, "tle": {"line1": "1 33748U 99025DJM 25345.59899108  .00005376  00000+0  19946-2 0  9999", "line2": "2 33748  98.5864  36.7637 0034512 244.4311 115.3303 14.32270627913770"}}, "geometry": {"type": "Point", "coordinates": [-161.006533103935, -64.70753896054008]}}, {"type": "Feature", "properties": {"norad_id": 35088, "name": "FENGYUN 1C DEB", "group": "fengyun-1c-debris", "lat": -16.23111677405599, "lon": 163.5264366505161, "alt_km": 1003.1804683933597, "timestamp": "2025-12-12T11:38:31.699271+00:00", "meta": {"OBJECT_NAME": "FENGYUN 1C DEB", "OBJECT_ID": "1999-025DJQ", "EPOCH": "2025-12-05T18:07:13.251936", "MEAN_MOTION": 14.11541767, "ECCENTRICITY": 0.0269112, "INCLINATION": 94.6213, "RA_OF_ASC_NODE": 158.6962, "ARG_OF_PERICENTER": 224.9702, "MEAN_ANOMALY": 132.9405, "EPHEMERIS_TYPE": 0, "CLASSIFICATION_TYPE": "U", "NORAD_CAT_ID": 35088, "ELEMENT_SET_NO": 999, "REV_AT_EPOCH": 58701, "BSTAR": 0.013442762, "MEAN_MOTION_DOT": 0.00034432, "MEAN_MOTION_DDOT": 0}, "tle": {"line1": "1 35088U 99025DJQ 25339.75501449  .00034432  00000+0  13443-1 0  9997", "line2": "2 35088  94.6213 158.6962 0269112 224.9702 132.9405 14.11541767587017"}}, "geometry": {"type": "Point", "coordinates": [163.5264366505161, -16.23111677405599]}}, {"type": "Feature", "properties": {"norad_id": 35089, "name": "FENGYUN 1C DEB", "group": "fengyun-1c-debris", "lat": -60.13588946599815, "lon": 161.12792142666115, "alt_km": 855.3825244486652, "timestamp": "2025-12-12T11:38:31.699281+00:00", "meta": {"OBJECT_NAME": "FENGYUN 1C DEB", "OBJECT_ID": "1999-025DJR", "EPOCH": "2025-12-09T11:27:18.732960", "MEAN_MOTION": 14.19406772, "ECCENTRICITY": 0.00291418, "INCLINATION": 98.5584, "RA_OF_ASC_NODE": 353.4263, "ARG_OF_PERICENTER": 74.1039, "MEAN_ANOMALY": 286.3346, "EPHEMERIS_TYPE": 0, "CLASSIFICATION_TYPE": "U", "NORAD_CAT_ID": 35089, "ELEMENT_SET_NO": 999, "REV_AT_EPOCH": 60829, "BSTAR": 0.00082160985, "MEAN_MOTION_DOT": 1.693e-05, "MEAN_MOTION_DDOT": 0}, "tle": {"line1": "1 35089U 99025DJR 25343.47730015  .00001693  00000+0  82161-3 0  9993", "line2": "2 35089  98.5584 353.4263 0029141  74.1039 286.3346 14.19406772608291"}}, "geometry": {"type": "Point", "coordinates": [161.12792142666115, -60.13588946599815]}}, {"type": "Feature", "properties": {"norad_id": 35090, "name": "FENGYUN 1C DEB", "group": "fengyun-1c-debris", "lat": -22.950600433597337, "lon": 175.23536777807496, "alt_km": 879.6950146160898, "timestamp": "2025-12-12T11:38:31.699292+00:00", "meta": {"OBJECT_NAME": "FENGYUN 1C DEB", "OBJECT_ID": "1999-025DJS", "EPOCH": "2025-11-28T11:16:09.482016", "MEAN_MOTION": 14.17474979, "ECCENTRICITY": 0.00568935, "INCLINATION": 99.1993, "RA_OF_ASC_NODE": 344.6679, "ARG_OF_PERICENTER": 56.1043, "MEAN_ANOMALY": 304.5524, "EPHEMERIS_TYPE": 0, "CLASSIFICATION_TYPE": "U", "NORAD_CAT_ID": 35090, "ELEMENT_SET_NO": 999, "REV_AT_EPOCH": 66048, "BSTAR": 0.0014922384, "MEAN_MOTION_DOT": 3.028e-05, "MEAN_MOTION_DDOT": 0}, "tle": {"line1": "1 35090U 99025DJS 25332.46955419  .00003028  00000+0  14922-2 0  9992", "line2": "2 35090  99.1993 344.6679 0056893  56.1043 304.5524 14.17474979660488"}}, "geometry": {"type": "Point", "coordinates": [175.23536777807496, -22.950600433597337]}}, {"type": "Feature", "properties": {"norad_id": 35091, "name": "FENGYUN 1C DEB", "group": "fengyun-1c-debris", "lat": 42.47931614400936, "lon": -81.2722767522375, "alt_km": 716.1160268345484, "timestamp": "2025-12-12T11:38:31.699306+00:00", "meta": {"OBJECT_NAME": "FENGYUN 1C DEB", "OBJECT_ID": "1999-025DJT", "EPOCH": "2025-12-10T06:26:06.539136", "MEAN_MOTION": 14.61449976, "ECCENTRICITY": 0.0048805, "INCLINATION": 98.5948, "RA_OF_ASC_NODE": 88.4647, "ARG_OF_PERICENTER": 299.5603, "MEAN_ANOMALY": 60.0737, "EPHEMERIS_TYPE": 0, "CLASSIFICATION_TYPE": "U", "NORAD_CAT_ID": 35091, "ELEMENT_SET_NO": 999, "REV_AT_EPOCH": 89891, "BSTAR": 0.0043163, "MEAN_MOTION_DOT": 0.00021756, "MEAN_MOTION_DDOT": 0}, "tle": {"line1": "1 35091U 99025DJT 25344.26813124  .00021756  00000+0  43163-2 0  9997", "line2": "2 35091  98.5948  88.4647 0048805 299.5603  60.0737 14.61449976898918"}}, "geometry": {"type": "Point", "coordinates": [-81.2722767522375, 42.47931614400936]}}, {"type": "Feature", "properties": {"norad_id": 35102, "name": "FENGYUN 1C DEB", "group": "fengyun-1c-debris", "lat": -39.649244407857665, "lon": 3.8680798197582744, "alt_km": 831.2836627279712, "timestamp": "2025-12-12T11:38:31.699316+00:00", "meta": {"OBJECT_NAME": "FENGYUN 1C DEB", "OBJECT_ID": "1999-025DKE", "EPOCH": "2025-12-08T18:45:28.418688", "MEAN_MOTION": 14.288571, "ECCENTRICITY": 0.00608821, "INCLINATION": 98.4802, "RA_OF_ASC_NODE": 353.1647, "ARG_OF_PERICENTER": 103.2317, "MEAN_ANOMALY": 257.5666, "EPHEMERIS_TYPE": 0, "CLASSIFICATION_TYPE": "U", "NORAD_CAT_ID": 35102, "ELEMENT_SET_NO": 999, "REV_AT_EPOCH": 64856, "BSTAR": 0.00079932448, "MEAN_MOTION_DOT": 2.015e-05, "MEAN_MOTION_DDOT": 0}, "tle": {"line1": "1 35102U 99025DKE 25342.78157892  .00002015  00000+0  79932-3 0  9999", "line2": "2 35102  98.4802 353.1647 0060882 103.2317 257.5666 14.28857100648566"}}, "geometry": {"type": "Point", "coordinates": [3.8680798197582744, -39.649244407857665]}}, {"type": "Feature", "properties": {"norad_id": 35104, "name": "FENGYUN 1C DEB", "group": "fengyun-1c-debris", "lat": 47.164940419064315, "lon": -177.41414646177202, "alt_km": 797.9545770784616, "timestamp": "2025-12-12T11:38:31.699326+00:00", "meta": {"OBJECT_NAME": "FENGYUN 1C DEB", "OBJECT_ID": "1999-025DKG", "EPOCH": "2025-12-06T18:54:45.260640", "MEAN_MOTION": 14.20313369, "ECCENTRICITY": 0.00310538, "INCLINATION": 98.5964, "RA_OF_ASC_NODE": 347.6591, "ARG_OF_PERICENTER": 157.8508, "MEAN_ANOMALY": 20.7382, "EPHEMERIS_TYPE": 0, "CLASSIFICATION_TYPE": "U", "NORAD_CAT_ID": 35104, "ELEMENT_SET_NO": 999, "REV_AT_EPOCH": 89682, "BSTAR": 0.00068235303, "MEAN_MOTION_DOT": 1.425e-05, "MEAN_MOTION_DDOT": 0}, "tle": {"line1": "1 35104U 99025DKG 25340.78802385  .00001425  00000+0  68235-3 0  9991", "line2": "2 35104  98.5964 347.6591 0031053 157.8508  20.7382 14.20313369896824"}}, "geometry": {"type": "Point", "coordinates": [-177.41414646177202, 47.164940419064315]}}, {"type": "Feature", "properties": {"norad_id": 35105, "name": "FENGYUN 1C DEB", "group": "fengyun-1c-debris", "lat": 31.175504064439256, "lon": 152.988334115608, "alt_km": 742.5171316966844, "timestamp": "2025-12-12T11:38:31.699336+00:00", "meta": {"OBJECT_NAME": "FENGYUN 1C DEB", "OBJECT_ID": "1999-025DKH", "EPOCH": "2025-12-11T05:03:49.389120", "MEAN_MOTION": 14.45371375, "ECCENTRICITY": 0.01127969, "INCLINATION": 98.9435, "RA_OF_ASC_NODE": 326.1792, "ARG_OF_PERICENTER": 58.9643, "MEAN_ANOMALY": 302.2564, "EPHEMERIS_TYPE": 0, "CLASSIFICATION_TYPE": "U", "NORAD_CAT_ID": 35105, "ELEMENT_SET_NO": 999, "REV_AT_EPOCH": 94471, "BSTAR": 0.00053947764, "MEAN_MOTION_DOT": 1.999e-05, "MEAN_MOTION_DDOT": 0}, "tle": {"line1": "1 35105U 99025DKH 25345.21098830  .00001999  00000+0  53948-3 0  9998", "line2": "2 35105  98.9435 326.1792 0112796  58.9643 302.2564 14.45371375944712"}}, "geometry": {"type": "Point", "coordinates": [152.988334115608, 31.175504064439256]}}]}